DryMass, ErgolMass, DV, ManeuverType, ISP
500
4000
2 13601 005.0000 003.0000 0000001 003.0000 003.0000 04.72570000000000
1 13601U 23001EAE 25063.58628472  .00030938  00000+0  12818-2 0  9996
500.00000

